start=new Date('2022-06-14T00:00:00.000Z').valueOf();
sats=[{"MEAN_ELEMENT_THEORY":"SGP4","GP_ID":"206060619","BSTAR":"0.00000147580000","CENTER_NAME":"EARTH","MEAN_MOTION":"15.08840911","REV_AT_EPOCH":"2416","ARG_OF_PERICENTER":"39.4606","CLASSIFICATION_TYPE":"U","ECCENTRICITY":"0.00025930","PERIAPSIS":"537.949","MEAN_ANOMALY":"320.6574","EPOCH":"2022-06-13T11:40:38.379648","RCS_SIZE":"LARGE","TLE_LINE1":"1 50835U 22001AJ  22164.48655532 -.00000265  00000-0  14758-5 0  9993","RA_OF_ASC_NODE":"187.7476","APOAPSIS":"541.536","OBJECT_NAME":"STARLINK-3310","COUNTRY_CODE":"US","OBJECT_TYPE":"PAYLOAD","TLE_LINE2":"2 50835  53.2150 187.7476 0002593  39.4606 320.6574 15.08840911 24163","ELEMENT_SET_NO":"999","DECAY_DATE":null,"REF_FRAME":"TEME","SITE":"AFETR","EPHEMERIS_TYPE":"0","PERIOD":"95.437","TIME_SYSTEM":"UTC","MEAN_MOTION_DOT":"-0.00000265","LAUNCH_DATE":"2022-01-06","OBJECT_ID":"2022-001AJ","INCLINATION":"53.2150","MEAN_MOTION_DDOT":"0.0000000000000","NORAD_CAT_ID":"50835","FILE":"3494620","SEMIMAJOR_AXIS":"6917.878"},{"OBJECT_NAME":"STARLINK-3330","APOAPSIS":"541.942","RA_OF_ASC_NODE":"186.5057","EPOCH":"2022-06-13T18:18:04.524768","TLE_LINE1":"1 50836U 22001AK  22164.76255237  .00001378  00000-0  10469-3 0  9991","RCS_SIZE":"LARGE","MEAN_ANOMALY":"324.5131","PERIAPSIS":"537.536","ECCENTRICITY":"0.00031840","CLASSIFICATION_TYPE":"U","ARG_OF_PERICENTER":"35.6073","REV_AT_EPOCH":"2546","MEAN_MOTION":"15.08842110","CENTER_NAME":"EARTH","BSTAR":"0.00010469000000","MEAN_ELEMENT_THEORY":"SGP4","GP_ID":"206076656","FILE":"3495252","NORAD_CAT_ID":"50836","SEMIMAJOR_AXIS":"6917.874","INCLINATION":"53.2169","OBJECT_ID":"2022-001AK","MEAN_MOTION_DDOT":"0.0000000000000","LAUNCH_DATE":"2022-01-06","TIME_SYSTEM":"UTC","MEAN_MOTION_DOT":"0.00001378","PERIOD":"95.437","SITE":"AFETR","EPHEMERIS_TYPE":"0","REF_FRAME":"TEME","DECAY_DATE":null,"OBJECT_TYPE":"PAYLOAD","TLE_LINE2":"2 50836  53.2169 186.5057 0003184  35.6073 324.5131 15.08842110 25468","ELEMENT_SET_NO":"999","COUNTRY_CODE":"US"},{"RA_OF_ASC_NODE":"178.4761","TLE_LINE1":"1 50837U 22001AL  22164.32556208  .00000670  00000-0  60209-4 0  9998","RCS_SIZE":"LARGE","EPOCH":"2022-06-13T07:48:48.563712","OBJECT_NAME":"STARLINK-3318","APOAPSIS":"541.495","ECCENTRICITY":"0.00025160","CLASSIFICATION_TYPE":"U","MEAN_ANOMALY":"318.7393","PERIAPSIS":"538.014","ARG_OF_PERICENTER":"41.3789","REV_AT_EPOCH":"2428","BSTAR":"0.00006020900000","GP_ID":"206061621","MEAN_ELEMENT_THEORY":"SGP4","MEAN_MOTION":"15.08836928","CENTER_NAME":"EARTH","MEAN_MOTION_DDOT":"0.0000000000000","INCLINATION":"53.2174","OBJECT_ID":"2022-001AL","SEMIMAJOR_AXIS":"6917.890","NORAD_CAT_ID":"50837","FILE":"3494620","MEAN_MOTION_DOT":"0.00000670","TIME_SYSTEM":"UTC","PERIOD":"95.438","LAUNCH_DATE":"2022-01-06","REF_FRAME":"TEME","DECAY_DATE":null,"EPHEMERIS_TYPE":"0","SITE":"AFETR","COUNTRY_CODE":"US","ELEMENT_SET_NO":"999","OBJECT_TYPE":"PAYLOAD","TLE_LINE2":"2 50837  53.2174 178.4761 0002516  41.3789 318.7393 15.08836928 24287"},{"COUNTRY_CODE":"US","TLE_LINE2":"2 50838  53.2168 186.3650 0002779  33.9879 326.1291 15.08842384 25413","OBJECT_TYPE":"PAYLOAD","ELEMENT_SET_NO":"999","REF_FRAME":"TEME","DECAY_DATE":null,"SITE":"AFETR","EPHEMERIS_TYPE":"0","TIME_SYSTEM":"UTC","MEAN_MOTION_DOT":"-0.00000639","PERIOD":"95.437","LAUNCH_DATE":"2022-01-06","OBJECT_ID":"2022-001AM","INCLINATION":"53.2168","MEAN_MOTION_DDOT":"0.0000000000000","NORAD_CAT_ID":"50838","FILE":"3495252","SEMIMAJOR_AXIS":"6917.873","BSTAR":"-0.00002203000000","GP_ID":"206077098","MEAN_ELEMENT_THEORY":"SGP4","MEAN_MOTION":"15.08842384","CENTER_NAME":"EARTH","REV_AT_EPOCH":"2541","ARG_OF_PERICENTER":"33.9879","ECCENTRICITY":"0.00027790","CLASSIFICATION_TYPE":"U","MEAN_ANOMALY":"326.1291","PERIAPSIS":"537.816","RA_OF_ASC_NODE":"186.3650","EPOCH":"2022-06-13T19:05:46.464288","RCS_SIZE":"LARGE","TLE_LINE1":"1 50838U 22001AM  22164.79567667 -.00000639  00000-0 -22030-4 0  9998","OBJECT_NAME":"STARLINK-3322","APOAPSIS":"541.661"},{"MEAN_ANOMALY":"322.8799","PERIAPSIS":"537.751","CLASSIFICATION_TYPE":"U","ECCENTRICITY":"0.00028910","APOAPSIS":"541.751","OBJECT_NAME":"STARLINK-3320","TLE_LINE1":"1 50839U 22001AN  22164.54175781 -.00000187  00000-0  63960-5 0  9999","RCS_SIZE":"LARGE","EPOCH":"2022-06-13T13:00:07.874784","RA_OF_ASC_NODE":"187.4978","CENTER_NAME":"EARTH","MEAN_MOTION":"15.08838176","GP_ID":"206061119","MEAN_ELEMENT_THEORY":"SGP4","BSTAR":"0.00000639600000","ARG_OF_PERICENTER":"37.2393","REV_AT_EPOCH":"2416","LAUNCH_DATE":"2022-01-06","PERIOD":"95.438","MEAN_MOTION_DOT":"-0.00000187","TIME_SYSTEM":"UTC","SEMIMAJOR_AXIS":"6917.886","FILE":"3494620","NORAD_CAT_ID":"50839","MEAN_MOTION_DDOT":"0.0000000000000","INCLINATION":"53.2168","OBJECT_ID":"2022-001AN","ELEMENT_SET_NO":"999","TLE_LINE2":"2 50839  53.2168 187.4978 0002891  37.2393 322.8799 15.08838176 24163","OBJECT_TYPE":"PAYLOAD","COUNTRY_CODE":"US","EPHEMERIS_TYPE":"0","SITE":"AFETR","DECAY_DATE":null,"REF_FRAME":"TEME"},{"MEAN_ANOMALY":"320.9847","PERIAPSIS":"537.877","ECCENTRICITY":"0.00026790","CLASSIFICATION_TYPE":"U","OBJECT_NAME":"STARLINK-3295","APOAPSIS":"541.583","RA_OF_ASC_NODE":"188.4042","EPOCH":"2022-06-13T08:08:40.989984","TLE_LINE1":"1 50840U 22001AP  22164.33936331  .00001368  00000-0  10407-3 0  9991","RCS_SIZE":"LARGE","MEAN_MOTION":"15.08845013","CENTER_NAME":"EARTH","BSTAR":"0.00010407000000","GP_ID":"206061371","MEAN_ELEMENT_THEORY":"SGP4","REV_AT_EPOCH":"2413","ARG_OF_PERICENTER":"39.1338","LAUNCH_DATE":"2022-01-06","TIME_SYSTEM":"UTC","MEAN_MOTION_DOT":"0.00001368","PERIOD":"95.437","FILE":"3494620","NORAD_CAT_ID":"50840","SEMIMAJOR_AXIS":"6917.865","INCLINATION":"53.2159","OBJECT_ID":"2022-001AP","MEAN_MOTION_DDOT":"0.0000000000000","TLE_LINE2":"2 50840  53.2159 188.4042 0002679  39.1338 320.9847 15.08845013 24130","OBJECT_TYPE":"PAYLOAD","ELEMENT_SET_NO":"999","COUNTRY_CODE":"US","SITE":"AFETR","EPHEMERIS_TYPE":"0","REF_FRAME":"TEME","DECAY_DATE":null},{"PERIOD":"95.438","TIME_SYSTEM":"UTC","MEAN_MOTION_DOT":"-0.00000587","LAUNCH_DATE":"2022-01-06","INCLINATION":"53.2149","OBJECT_ID":"2022-001AQ","MEAN_MOTION_DDOT":"0.0000000000000","FILE":"3494620","NORAD_CAT_ID":"50841","SEMIMAJOR_AXIS":"6917.893","COUNTRY_CODE":"US","TLE_LINE2":"2 50841  53.2149 187.7640 0002917  36.4285 323.6905 15.08835955 24164","OBJECT_TYPE":"PAYLOAD","ELEMENT_SET_NO":"999","DECAY_DATE":null,"REF_FRAME":"TEME","SITE":"AFETR","EPHEMERIS_TYPE":"0","CLASSIFICATION_TYPE":"U","ECCENTRICITY":"0.00029170","MEAN_ANOMALY":"323.6905","PERIAPSIS":"537.740","EPOCH":"2022-06-13T11:35:21.329664","TLE_LINE1":"1 50841U 22001AQ  22164.48288576 -.00000587  00000-0 -18747-4 0  9999","RCS_SIZE":"LARGE","RA_OF_ASC_NODE":"187.7640","APOAPSIS":"541.776","OBJECT_NAME":"STARLINK-3300","MEAN_ELEMENT_THEORY":"SGP4","GP_ID":"206062121","BSTAR":"-0.00001874700000","CENTER_NAME":"EARTH","MEAN_MOTION":"15.08835955","ARG_OF_PERICENTER":"36.4285","REV_AT_EPOCH":"2416"},{"MEAN_MOTION_DDOT":"0.0000000000000","OBJECT_ID":"2022-001AR","INCLINATION":"53.2165","SEMIMAJOR_AXIS":"6917.880","NORAD_CAT_ID":"50842","FILE":"3494620","MEAN_MOTION_DOT":"0.00001329","TIME_SYSTEM":"UTC","PERIOD":"95.438","LAUNCH_DATE":"2022-01-06","REF_FRAME":"TEME","DECAY_DATE":null,"EPHEMERIS_TYPE":"0","SITE":"AFETR","COUNTRY_CODE":"US","ELEMENT_SET_NO":"999","TLE_LINE2":"2 50842  53.2165 188.4340 0002767  38.3879 321.7310 15.08840107 24132","OBJECT_TYPE":"PAYLOAD","RA_OF_ASC_NODE":"188.4340","RCS_SIZE":"LARGE","TLE_LINE1":"1 50842U 22001AR  22164.33568709  .00001329  00000-0  10158-3 0  9993","EPOCH":"2022-06-13T08:03:23.364576","OBJECT_NAME":"STARLINK-3302","APOAPSIS":"541.659","ECCENTRICITY":"0.00027670","CLASSIFICATION_TYPE":"U","PERIAPSIS":"537.831","MEAN_ANOMALY":"321.7310","REV_AT_EPOCH":"2413","ARG_OF_PERICENTER":"38.3879","BSTAR":"0.00010158000000","MEAN_ELEMENT_THEORY":"SGP4","GP_ID":"206060869","MEAN_MOTION":"15.08840107","CENTER_NAME":"EARTH"},{"INCLINATION":"53.2163","OBJECT_ID":"2022-001AS","MEAN_MOTION_DDOT":"0.0000000000000","NORAD_CAT_ID":"50843","FILE":"3494620","SEMIMAJOR_AXIS":"6917.888","TIME_SYSTEM":"UTC","MEAN_MOTION_DOT":"0.00000406","PERIOD":"95.438","LAUNCH_DATE":"2022-01-06","REF_FRAME":"TEME","DECAY_DATE":null,"SITE":"AFETR","EPHEMERIS_TYPE":"0","COUNTRY_CODE":"US","OBJECT_TYPE":"PAYLOAD","TLE_LINE2":"2 50843  53.2163 188.0420 0002892  39.6231 320.4972 15.08837537 24156","ELEMENT_SET_NO":"999","RA_OF_ASC_NODE":"188.0420","EPOCH":"2022-06-13T10:10:34.577184","TLE_LINE1":"1 50843U 22001AS  22164.42401131  .00000406  00000-0  43669-4 0  9998","RCS_SIZE":"LARGE","OBJECT_NAME":"STARLINK-3325","APOAPSIS":"541.754","ECCENTRICITY":"0.00028920","CLASSIFICATION_TYPE":"U","MEAN_ANOMALY":"320.4972","PERIAPSIS":"537.752","REV_AT_EPOCH":"2415","ARG_OF_PERICENTER":"39.6231","BSTAR":"0.00004366900000","MEAN_ELEMENT_THEORY":"SGP4","GP_ID":"206060620","MEAN_MOTION":"15.08837537","CENTER_NAME":"EARTH"},{"SEMIMAJOR_AXIS":"6917.870","FILE":"3494620","NORAD_CAT_ID":"50844","MEAN_MOTION_DDOT":"0.0000000000000","INCLINATION":"53.2183","OBJECT_ID":"2022-001AT","LAUNCH_DATE":"2022-01-06","MEAN_MOTION_DOT":"0.00002326","TIME_SYSTEM":"UTC","PERIOD":"95.437","EPHEMERIS_TYPE":"0","SITE":"AFETR","REF_FRAME":"TEME","DECAY_DATE":null,"ELEMENT_SET_NO":"999","TLE_LINE2":"2 50844  53.2183 187.8879 0002510  37.8678 322.2490 15.08843422 24162","OBJECT_TYPE":"PAYLOAD","COUNTRY_CODE":"US","OBJECT_NAME":"STARLINK-3326","APOAPSIS":"541.471","RA_OF_ASC_NODE":"187.8879","TLE_LINE1":"1 50844U 22001AT  22164.45714201  .00002326  00000-0  16420-3 0  9994","RCS_SIZE":"LARGE","EPOCH":"2022-06-13T10:58:17.069664","PERIAPSIS":"537.999","MEAN_ANOMALY":"322.2490","ECCENTRICITY":"0.00025100","CLASSIFICATION_TYPE":"U","REV_AT_EPOCH":"2416","ARG_OF_PERICENTER":"37.8678","MEAN_MOTION":"15.08843422","CENTER_NAME":"EARTH","BSTAR":"0.00016420000000","GP_ID":"206061871","MEAN_ELEMENT_THEORY":"SGP4"}];
